ONEWEB-0589             
1 54655U 22166P   24132.77047054  .00000063  00000+0  12063-3 0  9991
2 54655  87.9320  36.5416 0001436  47.7498 312.3758 13.21825101 70295
ONEWEB-0590             
1 54656U 22166Q   24132.79412408  .00000062  00000+0  11974-3 0  9992
2 54656  87.9322  36.5425 0002101  78.2736 281.8633 13.21826664 70288
ONEWEB-0591             
1 54657U 22166R   24133.48800322 -.00000038  00000+0 -12231-3 0  9998
2 54657  87.9316  36.4023 0001805  75.3218 284.8116 13.21826091 70865
ONEWEB-0592             
1 54658U 22166S   24133.49115855 -.00000037  00000+0 -12129-3 0  9995
2 54658  87.9312  36.3686 0001813  70.9178 289.2152 13.21825744 70752
ONEWEB-0593             
1 54659U 22166T   24132.75785582  .00000106  00000+0  22605-3 0  9999
2 54659  87.9319  36.5382 0001759  72.0068 288.1258 13.21825853 70290
ONEWEB-0594             
1 54660U 22166U   24132.77677628  .00000056  00000+0  10438-3 0  9999
2 54660  87.9321  36.5330 0001841  85.1986 274.9358 13.21825346 70318
ONEWEB-0595             
1 54661U 22166V   24133.20887411  .00000154  00000+0  34078-3 0  9997
2 54661  87.9320  36.4345 0002143  82.8976 277.2401 13.21826534 70812
ONEWEB-0596             
1 54662U 22166W   24133.48485853 -.00000045  00000+0 -13955-3 0  9994
2 54662  87.9320  36.3854 0001868  68.2516 291.8817 13.21827797 70857
